[{"OBJECT_NAME":"ONEWEB-0225","OBJECT_ID":"2021-045AJ","EPOCH":"2026-01-04T05:32:47.185152","MEAN_MOTION":13.15548021,"ECCENTRICITY":0.00016712,"INCLINATION":87.9007,"RA_OF_ASC_NODE":291.9246,"ARG_OF_PERICENTER":51.7223,"MEAN_ANOMALY":308.4058,"EPHEMERIS_TYPE":0,"CLASSIFICATION_TYPE":"U","NORAD_CAT_ID":48799,"ELEMENT_SET_NO":999,"REV_AT_EPOCH":22286,"BSTAR":0.0002861478,"MEAN_MOTION_DOT":1.21e-6,"MEAN_MOTION_DDOT":0},{"OBJECT_NAME":"ONEWEB-0215","OBJECT_ID":"2021-045AK","EPOCH":"2026-01-04T06:38:56.525568","MEAN_MOTION":13.1554727,"ECCENTRICITY":0.0001531,"INCLINATION":87.9022,"RA_OF_ASC_NODE":291.8793,"ARG_OF_PERICENTER":49.7918,"MEAN_ANOMALY":310.3346,"EPHEMERIS_TYPE":0,"CLASSIFICATION_TYPE":"U","NORAD_CAT_ID":48800,"ELEMENT_SET_NO":999,"REV_AT_EPOCH":22274,"BSTAR":-0.00013033474,"MEAN_MOTION_DOT":-3.6e-7,"MEAN_MOTION_DDOT":0},{"OBJECT_NAME":"ONEWEB-0216","OBJECT_ID":"2021-045AL","EPOCH":"2026-01-04T06:52:38.369280","MEAN_MOTION":13.15548224,"ECCENTRICITY":0.0001849,"INCLINATION":87.901,"RA_OF_ASC_NODE":291.9053,"ARG_OF_PERICENTER":72.1169,"MEAN_ANOMALY":288.0163,"EPHEMERIS_TYPE":0,"CLASSIFICATION_TYPE":"U","NORAD_CAT_ID":48801,"ELEMENT_SET_NO":999,"REV_AT_EPOCH":22275,"BSTAR":7.5883506e-5,"MEAN_MOTION_DOT":4.1e-7,"MEAN_MOTION_DDOT":0},{"OBJECT_NAME":"ONEWEB-0239","OBJECT_ID":"2021-045AM","EPOCH":"2026-01-04T06:59:29.165856","MEAN_MOTION":13.15548313,"ECCENTRICITY":0.00012259,"INCLINATION":87.9004,"RA_OF_ASC_NODE":291.9189,"ARG_OF_PERICENTER":46.1978,"MEAN_ANOMALY":313.9254,"EPHEMERIS_TYPE":0,"CLASSIFICATION_TYPE":"U","NORAD_CAT_ID":48802,"ELEMENT_SET_NO":999,"REV_AT_EPOCH":22279,"BSTAR":0.00031624253,"MEAN_MOTION_DOT":1.32e-6,"MEAN_MOTION_DDOT":0},{"OBJECT_NAME":"ONEWEB-0249","OBJECT_ID":"2021-060A","EPOCH":"2026-01-04T04:51:49.351392","MEAN_MOTION":13.16593428,"ECCENTRICITY":0.00014687,"INCLINATION":87.9042,"RA_OF_ASC_NODE":261.4299,"ARG_OF_PERICENTER":71.2148,"MEAN_ANOMALY":288.9142,"EPHEMERIS_TYPE":0,"CLASSIFICATION_TYPE":"U","NORAD_CAT_ID":48967,"ELEMENT_SET_NO":999,"REV_AT_EPOCH":21803,"BSTAR":0.00013620054,"MEAN_MOTION_DOT":6.5e-7,"MEAN_MOTION_DDOT":0},{"OBJECT_NAME":"ONEWEB-0250","OBJECT_ID":"2021-060B","EPOCH":"2026-01-04T05:45:33.858144","MEAN_MOTION":13.25822981,"ECCENTRICITY":5.711e-5,"INCLINATION":87.9036,"RA_OF_ASC_NODE":259.7143,"ARG_OF_PERICENTER":103.8617,"MEAN_ANOMALY":256.2583,"EPHEMERIS_TYPE":0,"CLASSIFICATION_TYPE":"U","NORAD_CAT_ID":48968,"ELEMENT_SET_NO":999,"REV_AT_EPOCH":21849,"BSTAR":0.00039583311,"MEAN_MOTION_DOT":1.87e-6,"MEAN_MOTION_DDOT":0},{"OBJECT_NAME":"ONEWEB-0252","OBJECT_ID":"2021-060D","EPOCH":"2026-01-04T05:37:24.456576","MEAN_MOTION":13.16596211,"ECCENTRICITY":0.0001709,"INCLINATION":87.9041,"RA_OF_ASC_NODE":261.4169,"ARG_OF_PERICENTER":70.9843,"MEAN_ANOMALY":289.1473,"EPHEMERIS_TYPE":0,"CLASSIFICATION_TYPE":"U","NORAD_CAT_ID":48970,"ELEMENT_SET_NO":999,"REV_AT_EPOCH":21808,"BSTAR":0.00043094973,"MEAN_MOTION_DOT":1.78e-6,"MEAN_MOTION_DDOT":0},{"OBJECT_NAME":"ONEWEB-0253","OBJECT_ID":"2021-060E","EPOCH":"2026-01-04T05:21:28.216800","MEAN_MOTION":13.16593785,"ECCENTRICITY":0.00014682,"INCLINATION":87.9041,"RA_OF_ASC_NODE":261.424,"ARG_OF_PERICENTER":67.2724,"MEAN_ANOMALY":292.8562,"EPHEMERIS_TYPE":0,"CLASSIFICATION_TYPE":"U","NORAD_CAT_ID":48971,"ELEMENT_SET_NO":999,"REV_AT_EPOCH":21801,"BSTAR":0.00038289423,"MEAN_MOTION_DOT":1.59e-6,"MEAN_MOTION_DDOT":0},{"OBJECT_NAME":"ONEWEB-0254","OBJECT_ID":"2021-060F","EPOCH":"2026-01-04T05:35:08.487168","MEAN_MOTION":13.16595519,"ECCENTRICITY":0.00012905,"INCLINATION":87.9048,"RA_OF_ASC_NODE":261.4147,"ARG_OF_PERICENTER":62.1738,"MEAN_ANOMALY":297.9523,"EPHEMERIS_TYPE":0,"CLASSIFICATION_TYPE":"U","NORAD_CAT_ID":48972,"ELEMENT_SET_NO":999,"REV_AT_EPOCH":21801,"BSTAR":0.00020842963,"MEAN_MOTION_DOT":9.3e-7,"MEAN_MOTION_DDOT":0},{"OBJECT_NAME":"ONEWEB-0255","OBJECT_ID":"2021-060G","EPOCH":"2026-01-04T06:29:52.021536","MEAN_MOTION":13.16594499,"ECCENTRICITY":0.00014065,"INCLINATION":87.9035,"RA_OF_ASC_NODE":261.4208,"ARG_OF_PERICENTER":66.1884,"MEAN_ANOMALY":293.9394,"EPHEMERIS_TYPE":0,"CLASSIFICATION_TYPE":"U","NORAD_CAT_ID":48973,"ELEMENT_SET_NO":999,"REV_AT_EPOCH":21809,"BSTAR":-0.00014103955,"MEAN_MOTION_DOT":-4.1e-7,"MEAN_MOTION_DDOT":0},{"OBJECT_NAME":"ONEWEB-0256","OBJECT_ID":"2021-060H","EPOCH":"2026-01-04T05:18:00.987264","MEAN_MOTION":13.1659722,"ECCENTRICITY":0.00015944,"INCLINATION":87.9033,"RA_OF_ASC_NODE":261.4381,"ARG_OF_PERICENTER":75.9287,"MEAN_ANOMALY":284.2021,"EPHEMERIS_TYPE":0,"CLASSIFICATION_TYPE":"U","NORAD_CAT_ID":48974,"ELEMENT_SET_NO":999,"REV_AT_EPOCH":21805,"BSTAR":0.00042827549,"MEAN_MOTION_DOT":1.77e-6,"MEAN_MOTION_DDOT":0},{"OBJECT_NAME":"ONEWEB-0257","OBJECT_ID":"2021-060J","EPOCH":"2026-01-04T06:04:46.562016","MEAN_MOTION":13.1659399,"ECCENTRICITY":0.00015389,"INCLINATION":87.9044,"RA_OF_ASC_NODE":261.4123,"ARG_OF_PERICENTER":68.2537,"MEAN_ANOMALY":291.8758,"EPHEMERIS_TYPE":0,"CLASSIFICATION_TYPE":"U","NORAD_CAT_ID":48975,"ELEMENT_SET_NO":999,"REV_AT_EPOCH":21801,"BSTAR":0.00011945627,"MEAN_MOTION_DOT":5.9e-7,"MEAN_MOTION_DDOT":0},{"OBJECT_NAME":"ONEWEB-0258","OBJECT_ID":"2021-060K","EPOCH":"2026-01-04T06:07:03.515520","MEAN_MOTION":13.1659418,"ECCENTRICITY":0.00014285,"INCLINATION":87.9039,"RA_OF_ASC_NODE":261.4258,"ARG_OF_PERICENTER":77.3284,"MEAN_ANOMALY":282.8007,"EPHEMERIS_TYPE":0,"CLASSIFICATION_TYPE":"U","NORAD_CAT_ID":48976,"ELEMENT_SET_NO":999,"REV_AT_EPOCH":21802,"BSTAR":-0.00012045259,"MEAN_MOTION_DOT":-3.3e-7,"MEAN_MOTION_DDOT":0},{"OBJECT_NAME":"ONEWEB-0259","OBJECT_ID":"2021-060L","EPOCH":"2026-01-04T04:08:30.022080","MEAN_MOTION":13.16594669,"ECCENTRICITY":0.00013671,"INCLINATION":87.9045,"RA_OF_ASC_NODE":261.438,"ARG_OF_PERICENTER":69.1584,"MEAN_ANOMALY":290.9694,"EPHEMERIS_TYPE":0,"CLASSIFICATION_TYPE":"U","NORAD_CAT_ID":48977,"ELEMENT_SET_NO":999,"REV_AT_EPOCH":21804,"BSTAR":0.00044679592,"MEAN_MOTION_DOT":1.84e-6,"MEAN_MOTION_DDOT":0},{"OBJECT_NAME":"ONEWEB-0260","OBJECT_ID":"2021-060M","EPOCH":"2026-01-04T05:45:23.115168","MEAN_MOTION":13.16597311,"ECCENTRICITY":0.00019018,"INCLINATION":87.9031,"RA_OF_ASC_NODE":261.4359,"ARG_OF_PERICENTER":73.9007,"MEAN_ANOMALY":286.2334,"EPHEMERIS_TYPE":0,"CLASSIFICATION_TYPE":"U","NORAD_CAT_ID":48978,"ELEMENT_SET_NO":999,"REV_AT_EPOCH":21803,"BSTAR":0.00019792652,"MEAN_MOTION_DOT":8.9e-7,"MEAN_MOTION_DDOT":0},{"OBJECT_NAME":"ONEWEB-0261","OBJECT_ID":"2021-060N","EPOCH":"2026-01-04T05:02:04.563456","MEAN_MOTION":13.16595665,"ECCENTRICITY":0.00015662,"INCLINATION":87.9031,"RA_OF_ASC_NODE":261.4439,"ARG_OF_PERICENTER":59.7149,"MEAN_ANOMALY":300.4137,"EPHEMERIS_TYPE":0,"CLASSIFICATION_TYPE":"U","NORAD_CAT_ID":48979,"ELEMENT_SET_NO":999,"REV_AT_EPOCH":21808,"BSTAR":0.00028644731,"MEAN_MOTION_DOT":1.22e-6,"MEAN_MOTION_DDOT":0}]
