ONEWEB-0225             
1 48799U 21045AJ  26004.23110168  .00000121  00000+0  28615-3 0  9991
2 48799  87.9007 291.9246 0001671  51.7223 308.4058 13.15548021222866
ONEWEB-0215             
1 48800U 21045AK  26004.27704312 -.00000036  00000+0 -13033-3 0  9993
2 48800  87.9022 291.8793 0001531  49.7918 310.3346 13.15547270222749
ONEWEB-0216             
1 48801U 21045AL  26004.28655520  .00000041  00000+0  75884-4 0  9998
2 48801  87.9010 291.9053 0001849  72.1169 288.0163 13.15548224222756
ONEWEB-0239             
1 48802U 21045AM  26004.29130979  .00000132  00000+0  31624-3 0  9990
2 48802  87.9004 291.9189 0001225  46.1978 313.9254 13.15548313222799
ONEWEB-0249             
1 48967U 21060A   26004.20265453  .00000065  00000+0  13620-3 0  9997
2 48967  87.9042 261.4299 0001468  71.2148 288.9142 13.16593428218031
ONEWEB-0250             
1 48968U 21060B   26004.23997521  .00000187  00000+0  39583-3 0  9990
2 48968  87.9036 259.7143 0000571 103.8617 256.2583 13.25822981218496
ONEWEB-0252             
1 48970U 21060D   26004.23431084  .00000178  00000+0  43095-3 0  9993
2 48970  87.9041 261.4169 0001709  70.9843 289.1473 13.16596211218084
ONEWEB-0253             
1 48971U 21060E   26004.22324325  .00000159  00000+0  38289-3 0  9990
2 48971  87.9041 261.4240 0001468  67.2724 292.8562 13.16593785218010
ONEWEB-0254             
1 48972U 21060F   26004.23273712  .00000093  00000+0  20843-3 0  9999
2 48972  87.9048 261.4147 0001290  62.1738 297.9523 13.16595519218016
ONEWEB-0255             
1 48973U 21060G   26004.27074099 -.00000041  00000+0 -14104-3 0  9999
2 48973  87.9035 261.4208 0001406  66.1884 293.9394 13.16594499218092
ONEWEB-0256             
1 48974U 21060H   26004.22084476  .00000177  00000+0  42828-3 0  9997
2 48974  87.9033 261.4381 0001594  75.9287 284.2021 13.16597220218057
ONEWEB-0257             
1 48975U 21060J   26004.25331669  .00000059  00000+0  11946-3 0  9996
2 48975  87.9044 261.4123 0001538  68.2537 291.8758 13.16593990218012
ONEWEB-0258             
1 48976U 21060K   26004.25490180 -.00000033  00000+0 -12045-3 0  9996
2 48976  87.9039 261.4258 0001428  77.3284 282.8007 13.16594180218024
ONEWEB-0259             
1 48977U 21060L   26004.17256970  .00000184  00000+0  44680-3 0  9990
2 48977  87.9045 261.4380 0001367  69.1584 290.9694 13.16594669218048
ONEWEB-0260             
1 48978U 21060M   26004.23985087  .00000089  00000+0  19793-3 0  9997
2 48978  87.9031 261.4359 0001901  73.9007 286.2334 13.16597311218032
ONEWEB-0261             
1 48979U 21060N   26004.20977504  .00000122  00000+0  28645-3 0  9994
2 48979  87.9031 261.4439 0001566  59.7149 300.4137 13.16595665218083
